NORAD_CAT_ID,OBJECT_NAME,OBJECT_TYPE,EPOCH,MEAN_MOTION,ECCENTRICITY,INCLINATION,RA_OF_ASC_NODE,ARG_OF_PERICENTER,MEAN_ANOMALY,BSTAR,MEAN_MOTION_DOT,MEAN_MOTION_DDOT,TLE_LINE0,TLE_LINE1,TLE_LINE2,SEMIMAJOR_AXIS,PERIOD,APOGEE,PERIGEE,DECAYED
54171.0,STARLINK-5229,PAYLOAD,2023-02-24 02:52:39,15.08833083,0.0001203,53.2162,309.9167,73.3776,286.7348,0.0010781,0.00016908,0.0,0 STARLINK-5229,1 54171U 22141Q   23055.11990434  .00016908  00000-0  10781-2 0  9997,2 54171  53.2162 309.9167 0001203  73.3776 286.7348 15.08833083 18289,6917.902,95.438,540.599,538.934,0.0
54171.0,STARLINK-5229,PAYLOAD,2023-02-24 20:21:53,15.08852463,0.0001228,53.2166,306.645,77.0902,283.0228,0.000856,0.00013366,0.0,0 STARLINK-5229,1 54171U 22141Q   23055.84854144  .00013366  00000-0  85600-3 0  9992,2 54171  53.2166 306.6450 0001228  77.0902 283.0228 15.08852463 18393,6917.842,95.437,540.557,538.858,0.0
54171.0,STARLINK-5229,PAYLOAD,2023-02-24 23:32:40,15.08858234,0.0001201,53.2165,306.0503,76.5933,283.5193,0.000881,0.00013768,0.0,0 STARLINK-5229,1 54171U 22141Q   23055.98101920  .00013768  00000-0  88100-3 0  9998,2 54171  53.2165 306.0503 0001201  76.5933 283.5193 15.08858234 18415,6917.825,95.436,540.52,538.859,0.0
54171.0,STARLINK-5229,PAYLOAD,2023-02-25 20:12:40,15.088552,0.0001105,53.2164,302.1843,93.2414,266.8704,0.00059362,9.176e-05,0.0,0 STARLINK-5229,1 54171U 22141Q   23056.84213746  .00009176  00000-0  59362-3 0  9990,2 54171  53.2164 302.1843 0001105  93.2414 266.8704 15.08855200 18547,6917.834,95.437,540.463,538.935,0.0
54171.0,STARLINK-5229,PAYLOAD,2023-02-26 02:34:13,15.08857885,0.0001238,53.2167,300.9952,77.9514,282.1617,0.00075861,0.00011812,0.0,0 STARLINK-5229,1 54171U 22141Q   23057.10709672  .00011812  00000-0  75861-3 0  9990,2 54171  53.2167 300.9952 0001238  77.9514 282.1617 15.08857885 18583,6917.826,95.436,540.547,538.834,0.0
54171.0,STARLINK-5229,PAYLOAD,2023-02-26 15:17:17,15.08851625,0.0001291,53.2165,298.6166,94.6476,265.4664,0.0008451,0.00013192,0.0,0 STARLINK-5229,1 54171U 22141Q   23057.63701379  .00013192  00000-0  84510-3 0  9998,2 54171  53.2165 298.6166 0001291  94.6476 265.4664 15.08851625 18664,6917.845,95.437,540.603,538.817,0.0
54171.0,STARLINK-5229,PAYLOAD,2023-02-27 00:49:36,15.08858259,0.000132,53.2165,296.8329,96.497,263.6172,0.00084207,0.00013146,0.0,0 STARLINK-5229,1 54171U 22141Q   23058.03445084  .00013146  00000-0  84207-3 0  9993,2 54171  53.2165 296.8329 0001320  96.4970 263.6172 15.08858259 18728,6917.825,95.436,540.603,538.776,0.0
54171.0,STARLINK-5229,PAYLOAD,2023-02-27 18:18:50,15.0887431,7.56e-05,53.2167,293.5612,90.0517,270.0562,0.0013676,0.00021565,0.0,0 STARLINK-5229,1 54171U 22141Q   23058.76308401  .00021565  00000-0  13676-2 0  9999,2 54171  53.2167 293.5612 0000756  90.0517 270.0562 15.08874310 18831,6917.776,95.435,540.164,539.118,0.0
54171.0,STARLINK-5229,PAYLOAD,2023-02-28 00:40:22,15.08873791,0.0001102,53.2159,292.3713,72.922,287.1893,0.0011114,0.00017461,0.0,0 STARLINK-5229,1 54171U 22141Q   23059.02804102  .00017461  00000-0  11114-2 0  9993,2 54171  53.2159 292.3713 0001102  72.9220 287.1893 15.08873791 18879,6917.777,95.435,540.404,538.88,0.0
54171.0,STARLINK-5229,PAYLOAD,2023-02-28 21:20:25,15.08809326,0.0001531,53.2163,288.5051,79.2807,280.8358,0.0001718,2.445e-05,0.0,0 STARLINK-5229,1 54171U 22141Q   23059.88918481  .00002445  00000-0  17180-3 0  9999,2 54171  53.2163 288.5051 0001531  79.2807 280.8358 15.08809326 19008,6917.974,95.439,540.898,538.78,0.0
54171.0,STARLINK-5229,PAYLOAD,2023-03-01 03:41:58,15.08812645,0.0001454,53.216,287.3149,80.0398,280.0758,6.1814e-05,6.95e-06,0.0,0 STARLINK-5229,1 54171U 22141Q   23060.15414946  .00000695  00000-0  61814-4 0  9997,2 54171  53.2160 287.3149 0001454  80.0398 280.0758 15.08812645 19047,6917.964,95.439,540.835,538.823,0.0
54171.0,STARLINK-5229,PAYLOAD,2023-03-01 21:11:13,15.08821402,0.0001362,53.2153,284.0449,90.7716,269.3432,0.00073416,0.0001141,0.0,0 STARLINK-5229,1 54171U 22141Q   23060.88279570  .00011410  00000-0  73416-3 0  9996,2 54171  53.2153 284.0449 0001362  90.7716 269.3432 15.08821402 19158,6917.937,95.439,540.744,538.86,0.0
54171.0,STARLINK-5229,PAYLOAD,2023-03-02 19:26:38,15.08834072,7.11e-05,53.2156,279.8821,92.3361,267.7712,0.00043075,6.573e-05,0.0,0 STARLINK-5229,1 54171U 22141Q   23061.81016661  .00006573  00000-0  43075-3 0  9992,2 54171  53.2156 279.8821 0000711  92.3361 267.7712 15.08834072 19293,6917.899,95.438,540.255,539.272,0.0
54171.0,STARLINK-5229,PAYLOAD,2023-03-02 22:37:24,15.08858139,0.0001265,53.216,279.2861,101.742,258.3714,0.0011116,0.00017456,0.0,0 STARLINK-5229,1 54171U 22141Q   23061.94264432  .00017456  00000-0  11116-2 0  9999,2 54171  53.2160 279.2861 0001265 101.7420 258.3714 15.08858139 19313,6917.825,95.436,540.565,538.815,0.0
54171.0,STARLINK-5229,PAYLOAD,2023-03-03 20:52:46,15.08895007,0.0001239,53.216,275.1256,89.6968,270.4166,0.0011259,0.00017703,0.0,0 STARLINK-5229,1 54171U 22141Q   23062.86998065  .00017703  00000-0  11259-2 0  9990,2 54171  53.2160 275.1256 0001239  89.6968 270.4166 15.08895007 19454,6917.712,95.434,540.434,538.72,0.0
54171.0,STARLINK-5229,PAYLOAD,2023-03-04 14:22:00,15.08857728,0.0001382,53.2155,271.8559,83.5676,276.5474,4.637e-05,4.5e-06,0.0,0 STARLINK-5229,1 54171U 22141Q   23063.59861886  .00000450  00000-0  46370-4 0  9996,2 54171  53.2155 271.8559 0001382  83.5676 276.5474 15.08857728 19564,6917.826,95.436,540.647,538.735,0.0
54171.0,STARLINK-5229,PAYLOAD,2023-03-04 20:43:33,15.08842943,0.0001152,53.2157,270.6642,109.3609,250.7508,-0.00015798,-2.801e-05,0.0,0 STARLINK-5229,1 54171U 22141Q   23063.86357939 -.00002801  00000-0 -15798-3 0  9998,2 54171  53.2157 270.6642 0001152 109.3609 250.7508 15.08842943 19604,6917.871,95.437,540.533,538.939,0.0
54171.0,STARLINK-5229,PAYLOAD,2023-03-04 22:18:56,15.08842672,0.0001194,53.2159,270.3667,109.5821,250.53,-1.9577e-05,-5.99e-06,0.0,0 STARLINK-5229,1 54171U 22141Q   23063.92981977 -.00000599  00000-0 -19577-4 0  9992,2 54171  53.2159 270.3667 0001194 109.5821 250.5300 15.08842672 19612,6917.872,95.437,540.563,538.911,0.0
54171.0,STARLINK-5229,PAYLOAD,2023-03-05 06:15:52,15.08838323,0.0001107,53.2155,268.8792,109.0539,251.0573,0.00036059,5.455e-05,0.0,0 STARLINK-5229,1 54171U 22141Q   23064.26102252  .00005455  00000-0  36059-3 0  9998,2 54171  53.2155 268.8792 0001107 109.0539 251.0573 15.08838323 19665,6917.886,95.438,540.516,538.985,0.0
54171.0,STARLINK-5229,PAYLOAD,2023-03-05 20:34:20,15.08839594,0.0001173,53.2159,266.2042,111.9251,248.1866,4.5077e-05,4.3e-06,0.0,0 STARLINK-5229,1 54171U 22141Q   23064.85718353  .00000430  00000-0  45077-4 0  9997,2 54171  53.2159 266.2042 0001173 111.9251 248.1866 15.08839594 19758,6917.882,95.438,540.558,538.935,0.0
54171.0,STARLINK-5229,PAYLOAD,2023-03-05 23:45:06,15.08846716,0.0001191,53.2163,265.6082,103.3374,256.7751,8.2862e-05,1.031e-05,0.0,0 STARLINK-5229,1 54171U 22141Q   23064.98966073  .00001031  00000-0  82862-4 0  9996,2 54171  53.2163 265.6082 0001191 103.3374 256.7751 15.08846716 19775,6917.86,95.437,540.549,538.901,0.0
54171.0,STARLINK-5229,PAYLOAD,2023-03-06 22:00:30,15.08842504,9.19e-05,53.2152,261.4431,85.1509,274.9588,0.00020991,3.055e-05,0.0,0 STARLINK-5229,1 54171U 22141Q   23065.91702511  .00003055  00000-0  20991-3 0  9997,2 54171  53.2152 261.4431 0000919  85.1509 274.9588 15.08842504 19916,6917.873,95.437,540.373,539.102,0.0
54171.0,STARLINK-5229,PAYLOAD,2023-03-07 18:40:31,15.08848914,0.0001092,53.2158,257.5785,91.9985,268.1132,0.0002114,3.079e-05,0.0,0 STARLINK-5229,1 54171U 22141Q   23066.77814231  .00003079  00000-0  21140-3 0  9998,2 54171  53.2158 257.5785 0001092  91.9985 268.1132 15.08848914 20043,6917.853,95.437,540.474,538.963,0.0
54171.0,STARLINK-5229,PAYLOAD,2023-03-08 05:48:13,15.08842866,0.0001268,53.2161,255.497,87.34,272.7737,5.3346e-05,5.61e-06,0.0,0 STARLINK-5229,1 54171U 22141Q   23067.24182420  .00000561  00000-0  53346-4 0  9996,2 54171  53.2161 255.4970 0001268  87.3400 272.7737 15.08842866 20116,6917.872,95.437,540.614,538.859,0.0
54171.0,STARLINK-5229,PAYLOAD,2023-03-08 18:31:18,15.08842513,0.0001179,53.216,253.1184,90.2735,269.8392,0.00012204,1.655e-05,0.0,0 STARLINK-5229,1 54171U 22141Q   23067.77174627  .00001655  00000-0  12204-3 0  9996,2 54171  53.2160 253.1184 0001179  90.2735 269.8392 15.08842513 20193,6917.873,95.437,540.553,538.922,0.0
54171.0,STARLINK-5229,PAYLOAD,2023-03-09 18:22:05,15.08847985,0.0001174,53.2158,248.6579,85.5638,274.5489,0.00023881,3.516e-05,0.0,0 STARLINK-5229,1 54171U 22141Q   23068.76534429  .00003516  00000-0  23881-3 0  9997,2 54171  53.2158 248.6579 0001174  85.5638 274.5489 15.08847985 20346,6917.856,95.437,540.533,538.909,0.0
54171.0,STARLINK-5229,PAYLOAD,2023-03-09 21:32:51,15.08855711,0.0001278,53.2156,248.0638,78.8115,281.3021,0.00040023,6.09e-05,0.0,0 STARLINK-5229,1 54171U 22141Q   23068.89782162  .00006090  00000-0  40023-3 0  9997,2 54171  53.2156 248.0638 0001278  78.8115 281.3021 15.08855711 20360,6917.832,95.437,540.581,538.813,0.0
54171.0,STARLINK-5229,PAYLOAD,2023-03-10 11:51:20,15.08833535,0.0001162,53.2159,245.3865,96.8444,263.268,4.5526e-05,4.37e-06,0.0,0 STARLINK-5229,1 54171U 22141Q   23069.49399106  .00000437  00000-0  45526-4 0  9999,2 54171  53.2159 245.3865 0001162  96.8444 263.2680 15.08833535 20452,6917.9,95.438,540.569,538.961,0.0
54171.0,STARLINK-5229,PAYLOAD,2023-03-10 21:23:39,15.08839085,0.0001408,53.2159,243.6019,97.8357,262.2795,0.00010393,1.366e-05,0.0,0 STARLINK-5229,1 54171U 22141Q   23069.89143030  .00001366  00000-0  10393-3 0  9991,2 54171  53.2159 243.6019 0001408  97.8357 262.2795 15.08839085 20510,6917.883,95.438,540.722,538.774,0.0
54171.0,STARLINK-5229,PAYLOAD,2023-03-11 13:17:31,15.08839503,0.0001467,53.2154,240.6277,98.388,261.7278,0.00011441,1.533e-05,0.0,0 STARLINK-5229,1 54171U 22141Q   23070.55383196  .00001533  00000-0  11441-3 0  9996,2 54171  53.2154 240.6277 0001467  98.3880 261.7278 15.08839503 20616,6917.882,95.438,540.762,538.732,0.0
